LEMUR-2-GREENBERG       
1 42837U 17042N   26068.46200528  .00019778  00000+0  72539-3 0  9997
2 42837  97.3781 249.8007 0009157   4.0119 356.1192 15.27971352473146
STARLINK-34132          
1 64086U 25107Y   26068.39729572  .00037658  00000+0  13698-2 0  9992
2 64086  42.9988 203.3747 0003278 293.6744  66.3764 15.27605260 46047
